{
  "norad_id": 66217,
  "name": "STARLINK-35700",
  "history": [
    {
      "epoch": "2026-04-14T13:59:05.331840Z",
      "apogee_km": 476.0353364047278,
      "perigee_km": 474.4179425858065,
      "latitude_deg": 4.17668539429988e-05,
      "longitude_deg": 10.750266423480884,
      "height_km": 475.8992773544164,
      "semi_major_axis_km": 6853.363639495266,
      "eccentricity": 0.000118,
      "inclination_deg": 53.1565,
      "raan_deg": 63.2795,
      "arg_perigee_deg": 73.8277,
      "mean_anomaly_deg": 286.2854,
      "mean_motion_rev_day": 15.30196125
    },
    {
      "epoch": "2026-04-15T21:20:09.580128Z",
      "apogee_km": 476.37377525979355,
      "perigee_km": 474.035415107518,
      "latitude_deg": 6.360354702325018e-05,
      "longitude_deg": -106.87206331672988,
      "height_km": 476.0953090160734,
      "semi_major_axis_km": 6853.341595183656,
      "eccentricity": 0.0001706,
      "inclination_deg": 53.16,
      "raan_deg": 57.2124,
      "arg_perigee_deg": 89.6696,
      "mean_anomaly_deg": 270.4501,
      "mean_motion_rev_day": 15.30203508
    },
    {
      "epoch": "2026-04-16T20:50:57.516000Z",
      "apogee_km": 476.18473799498497,
      "perigee_km": 474.2233117936603,
      "latitude_deg": -1.9424687148442858e-05,
      "longitude_deg": -105.08851366759184,
      "height_km": 476.27193595309086,
      "semi_major_axis_km": 6853.341024894322,
      "eccentricity": 0.0001431,
      "inclination_deg": 53.1586,
      "raan_deg": 52.6614,
      "arg_perigee_deg": 99.9928,
      "mean_anomaly_deg": 260.1234,
      "mean_motion_rev_day": 15.30203699
    },
    {
      "epoch": "2026-04-17T03:07:10.198560Z",
      "apogee_km": 476.0416061106871,
      "perigee_km": 474.3541779935658,
      "latitude_deg": -3.952738303872906e-05,
      "longitude_deg": 159.38832021791916,
      "height_km": 476.2120158533924,
      "semi_major_axis_km": 6853.334892052126,
      "eccentricity": 0.00012311,
      "inclination_deg": 53.1602,
      "raan_deg": 51.4486,
      "arg_perigee_deg": 97.8992,
      "mean_anomaly_deg": 262.2148,
      "mean_motion_rev_day": 15.30205753
    },
    {
      "epoch": "2026-04-18T05:46:04.581120Z",
      "apogee_km": 476.0239748843278,
      "perigee_km": 474.36327580719535,
      "latitude_deg": 5.252916016968724e-05,
      "longitude_deg": 113.4096832816561,
      "height_km": 476.046100949573,
      "semi_major_axis_km": 6853.330625345761,
      "eccentricity": 0.00012116,
      "inclination_deg": 53.1606,
      "raan_deg": 46.2909,
      "arg_perigee_deg": 86.8421,
      "mean_anomaly_deg": 273.2719,
      "mean_motion_rev_day": 15.30207182
    }
  ]
}